SL-16 R/B               
1 22803U 93059B   26106.23778304 -.00000099  00000+0 -25240-4 0  9996
2 22803  70.9893 291.9450 0016288 160.1991 199.9768 14.17239305684850
ARIANE 40 R/B           
1 22830U 93061H   26106.12749146  .00000111  00000+0  56230-4 0  9995
2 22830  98.4854 174.2639 0011094 167.4296 192.7168 14.32880639699469
COSMOS 2278             
1 23087U 94023A   26106.22270644  .00000342  00000+0  20313-3 0  9990
2 23087  71.0512  96.5701 0009850 320.3068  39.7333 14.14380653650116
SL-16 R/B               
1 23088U 94023B   26106.11082412 -.00000250  00000+0 -10453-3 0  9997
2 23088  71.0022 352.3012 0005556 253.1539 106.8975 14.15018495651387
SL-16 R/B               
1 23343U 94074B   26106.05405397  .00000206  00000+0  34213-4 0  9991
2 23343  97.7053 135.3490 0008105  98.3778 289.5984 14.79449072692772
SL-16 R/B               
1 23405U 94077B   26106.21919567  .00000184  00000+0  11830-3 0  9994
2 23405  70.9812 273.5318 0001014 157.4103 202.7065 14.15567503621546
ARIANE 40+ R/B          
1 23561U 95021B   26106.19743556  .00000157  00000+0  63980-4 0  9991
2 23561  98.4439 177.1601 0007313  39.1758 342.2844 14.39798744624641
SL-16 R/B               
1 23705U 95058B   26106.22801544  .00000249  00000+0  15181-3 0  9998
2 23705  71.0194 101.4436 0010641  56.7593 303.4549 14.15503448573162
SL-16 R/B               
1 24298U 96051B   26106.27617257  .00000038  00000+0  46969-4 0  9996
2 24298  70.7569  95.6821 0012657  84.0445 276.2117 14.12425403526957
ORBVIEW 2 (SEASTAR)     
1 24883U 97037A   26106.19604389  .00000149  00000+0  67953-4 0  9993
2 24883  98.8628 271.5142 0001427 336.1424  23.9694 14.35520647513859
SL-16 R/B               
1 25400U 98043G   26105.77773163  .00000008  00000+0  22422-4 0  9993
2 25400  98.8314  59.4186 0008741 267.0360  92.9819 14.26058201444271
SL-16 R/B               
1 25407U 98045B   26106.29112451  .00000011  00000+0  29794-4 0  9990
2 25407  71.0092 102.4986 0008960 314.9991  45.0405 14.16199002432424
ISS (ZARYA)             
1 25544U 98067A   26105.87667374  .00005471  00000+0  10765-3 0  9990
2 25544  51.6326 248.4785 0006598 317.1782  42.8691 15.48928061562096
CZ-4B R/B               
1 25732U 99025C   26106.11729321  .00000009  00000+0  25385-4 0  9990
2 25732  98.6554 149.4990 0036194 236.2112 137.6666 14.18272617393474
OKEAN-O                 
1 25860U 99039A   26106.09793751  .00000293  00000+0  45240-4 0  9999
2 25860  97.9370 165.5947 0001234 115.5928 244.5412 14.80392679439924
SL-16 R/B               
1 25861U 99039B   26106.11024144  .00000243  00000+0  37609-4 0  9991
2 25861  97.9893 165.1361 0015858 132.6626 227.5926 14.81781405442401
DELTA 2 R/B             
1 25876U 99041E   26106.17228687  .00000259  00000+0  82076-4 0  9999
2 25876  51.7596 151.5412 0502540  98.9601 266.8539 14.11917817368322
