[{"OBJECT_NAME":"SL-16 R/B","OBJECT_ID":"1993-059B","EPOCH":"2026-04-16T05:42:24.454656","MEAN_MOTION":14.17239305,"ECCENTRICITY":0.00162886,"INCLINATION":70.9893,"RA_OF_ASC_NODE":291.945,"ARG_OF_PERICENTER":160.1991,"MEAN_ANOMALY":199.9768,"EPHEMERIS_TYPE":0,"CLASSIFICATION_TYPE":"U","NORAD_CAT_ID":22803,"ELEMENT_SET_NO":999,"REV_AT_EPOCH":68485,"BSTAR":-2.5240445e-5,"MEAN_MOTION_DOT":-9.9e-7,"MEAN_MOTION_DDOT":0},{"OBJECT_NAME":"ARIANE 40 R/B","OBJECT_ID":"1993-061H","EPOCH":"2026-04-16T03:03:35.262144","MEAN_MOTION":14.32880639,"ECCENTRICITY":0.0011094,"INCLINATION":98.4854,"RA_OF_ASC_NODE":174.2639,"ARG_OF_PERICENTER":167.4296,"MEAN_ANOMALY":192.7168,"EPHEMERIS_TYPE":0,"CLASSIFICATION_TYPE":"U","NORAD_CAT_ID":22830,"ELEMENT_SET_NO":999,"REV_AT_EPOCH":69946,"BSTAR":5.6230013e-5,"MEAN_MOTION_DOT":1.11e-6,"MEAN_MOTION_DDOT":0},{"OBJECT_NAME":"COSMOS 2278","OBJECT_ID":"1994-023A","EPOCH":"2026-04-16T05:20:41.836416","MEAN_MOTION":14.14380653,"ECCENTRICITY":0.00098504,"INCLINATION":71.0512,"RA_OF_ASC_NODE":96.5701,"ARG_OF_PERICENTER":320.3068,"MEAN_ANOMALY":39.7333,"EPHEMERIS_TYPE":0,"CLASSIFICATION_TYPE":"U","NORAD_CAT_ID":23087,"ELEMENT_SET_NO":999,"REV_AT_EPOCH":65011,"BSTAR":0.00020313384,"MEAN_MOTION_DOT":3.42e-6,"MEAN_MOTION_DDOT":0},{"OBJECT_NAME":"SL-16 R/B","OBJECT_ID":"1994-023B","EPOCH":"2026-04-16T02:39:35.203968","MEAN_MOTION":14.15018495,"ECCENTRICITY":0.00055569,"INCLINATION":71.0022,"RA_OF_ASC_NODE":352.3012,"ARG_OF_PERICENTER":253.1539,"MEAN_ANOMALY":106.8975,"EPHEMERIS_TYPE":0,"CLASSIFICATION_TYPE":"U","NORAD_CAT_ID":23088,"ELEMENT_SET_NO":999,"REV_AT_EPOCH":65138,"BSTAR":-0.00010452965,"MEAN_MOTION_DOT":-2.5e-6,"MEAN_MOTION_DDOT":0},{"OBJECT_NAME":"SL-16 R/B","OBJECT_ID":"1994-074B","EPOCH":"2026-04-16T01:17:50.263008","MEAN_MOTION":14.79449072,"ECCENTRICITY":0.00081056,"INCLINATION":97.7053,"RA_OF_ASC_NODE":135.349,"ARG_OF_PERICENTER":98.3778,"MEAN_ANOMALY":289.5984,"EPHEMERIS_TYPE":0,"CLASSIFICATION_TYPE":"U","NORAD_CAT_ID":23343,"ELEMENT_SET_NO":999,"REV_AT_EPOCH":69277,"BSTAR":3.4212964e-5,"MEAN_MOTION_DOT":2.06e-6,"MEAN_MOTION_DDOT":0},{"OBJECT_NAME":"SL-16 R/B","OBJECT_ID":"1994-077B","EPOCH":"2026-04-16T05:15:38.505888","MEAN_MOTION":14.15567503,"ECCENTRICITY":0.00010144,"INCLINATION":70.9812,"RA_OF_ASC_NODE":273.5318,"ARG_OF_PERICENTER":157.4103,"MEAN_ANOMALY":202.7065,"EPHEMERIS_TYPE":0,"CLASSIFICATION_TYPE":"U","NORAD_CAT_ID":23405,"ELEMENT_SET_NO":999,"REV_AT_EPOCH":62154,"BSTAR":0.00011829503,"MEAN_MOTION_DOT":1.84e-6,"MEAN_MOTION_DDOT":0},{"OBJECT_NAME":"ARIANE 40+ R/B","OBJECT_ID":"1995-021B","EPOCH":"2026-04-16T04:44:18.432384","MEAN_MOTION":14.39798744,"ECCENTRICITY":0.00073131,"INCLINATION":98.4439,"RA_OF_ASC_NODE":177.1601,"ARG_OF_PERICENTER":39.1758,"MEAN_ANOMALY":342.2844,"EPHEMERIS_TYPE":0,"CLASSIFICATION_TYPE":"U","NORAD_CAT_ID":23561,"ELEMENT_SET_NO":999,"REV_AT_EPOCH":62464,"BSTAR":6.3979874e-5,"MEAN_MOTION_DOT":1.57e-6,"MEAN_MOTION_DDOT":0},{"OBJECT_NAME":"SL-16 R/B","OBJECT_ID":"1995-058B","EPOCH":"2026-04-16T05:28:20.534016","MEAN_MOTION":14.15503448,"ECCENTRICITY":0.00106412,"INCLINATION":71.0194,"RA_OF_ASC_NODE":101.4436,"ARG_OF_PERICENTER":56.7593,"MEAN_ANOMALY":303.4549,"EPHEMERIS_TYPE":0,"CLASSIFICATION_TYPE":"U","NORAD_CAT_ID":23705,"ELEMENT_SET_NO":999,"REV_AT_EPOCH":57316,"BSTAR":0.00015180844,"MEAN_MOTION_DOT":2.49e-6,"MEAN_MOTION_DDOT":0},{"OBJECT_NAME":"SL-16 R/B","OBJECT_ID":"1996-051B","EPOCH":"2026-04-16T06:37:41.310048","MEAN_MOTION":14.12425403,"ECCENTRICITY":0.00126577,"INCLINATION":70.7569,"RA_OF_ASC_NODE":95.6821,"ARG_OF_PERICENTER":84.0445,"MEAN_ANOMALY":276.2117,"EPHEMERIS_TYPE":0,"CLASSIFICATION_TYPE":"U","NORAD_CAT_ID":24298,"ELEMENT_SET_NO":999,"REV_AT_EPOCH":52695,"BSTAR":4.6968968e-5,"MEAN_MOTION_DOT":3.8e-7,"MEAN_MOTION_DDOT":0},{"OBJECT_NAME":"ORBVIEW 2 (SEASTAR)","OBJECT_ID":"1997-037A","EPOCH":"2026-04-16T04:42:18.192096","MEAN_MOTION":14.35520647,"ECCENTRICITY":0.00014278,"INCLINATION":98.8628,"RA_OF_ASC_NODE":271.5142,"ARG_OF_PERICENTER":336.1424,"MEAN_ANOMALY":23.9694,"EPHEMERIS_TYPE":0,"CLASSIFICATION_TYPE":"U","NORAD_CAT_ID":24883,"ELEMENT_SET_NO":999,"REV_AT_EPOCH":51385,"BSTAR":6.7952624e-5,"MEAN_MOTION_DOT":1.49e-6,"MEAN_MOTION_DDOT":0},{"OBJECT_NAME":"SL-16 R/B","OBJECT_ID":"1998-043G","EPOCH":"2026-04-15T18:39:56.012832","MEAN_MOTION":14.26058201,"ECCENTRICITY":0.00087419,"INCLINATION":98.8314,"RA_OF_ASC_NODE":59.4186,"ARG_OF_PERICENTER":267.036,"MEAN_ANOMALY":92.9819,"EPHEMERIS_TYPE":0,"CLASSIFICATION_TYPE":"U","NORAD_CAT_ID":25400,"ELEMENT_SET_NO":999,"REV_AT_EPOCH":44427,"BSTAR":2.242178e-5,"MEAN_MOTION_DOT":8.0e-8,"MEAN_MOTION_DDOT":0},{"OBJECT_NAME":"SL-16 R/B","OBJECT_ID":"1998-045B","EPOCH":"2026-04-16T06:59:13.157664","MEAN_MOTION":14.16199002,"ECCENTRICITY":0.00089606,"INCLINATION":71.0092,"RA_OF_ASC_NODE":102.4986,"ARG_OF_PERICENTER":314.9991,"MEAN_ANOMALY":45.0405,"EPHEMERIS_TYPE":0,"CLASSIFICATION_TYPE":"U","NORAD_CAT_ID":25407,"ELEMENT_SET_NO":999,"REV_AT_EPOCH":43242,"BSTAR":2.9793817e-5,"MEAN_MOTION_DOT":1.1e-7,"MEAN_MOTION_DDOT":0},{"OBJECT_NAME":"ISS (ZARYA)","OBJECT_ID":"1998-067A","EPOCH":"2026-04-15T21:02:24.611136","MEAN_MOTION":15.48928061,"ECCENTRICITY":0.00065987,"INCLINATION":51.6326,"RA_OF_ASC_NODE":248.4785,"ARG_OF_PERICENTER":317.1782,"MEAN_ANOMALY":42.8691,"EPHEMERIS_TYPE":0,"CLASSIFICATION_TYPE":"U","NORAD_CAT_ID":25544,"ELEMENT_SET_NO":999,"REV_AT_EPOCH":56209,"BSTAR":0.00010764865,"MEAN_MOTION_DOT":5.471e-5,"MEAN_MOTION_DDOT":0},{"OBJECT_NAME":"CZ-4B R/B","OBJECT_ID":"1999-025C","EPOCH":"2026-04-16T02:48:54.133344","MEAN_MOTION":14.18272617,"ECCENTRICITY":0.00361944,"INCLINATION":98.6554,"RA_OF_ASC_NODE":149.499,"ARG_OF_PERICENTER":236.2112,"MEAN_ANOMALY":137.6666,"EPHEMERIS_TYPE":0,"CLASSIFICATION_TYPE":"U","NORAD_CAT_ID":25732,"ELEMENT_SET_NO":999,"REV_AT_EPOCH":39347,"BSTAR":2.5384665e-5,"MEAN_MOTION_DOT":9.0e-8,"MEAN_MOTION_DDOT":0},{"OBJECT_NAME":"OKEAN-O","OBJECT_ID":"1999-039A","EPOCH":"2026-04-16T02:21:01.800864","MEAN_MOTION":14.80392679,"ECCENTRICITY":0.0001234,"INCLINATION":97.937,"RA_OF_ASC_NODE":165.5947,"ARG_OF_PERICENTER":115.5928,"MEAN_ANOMALY":244.5412,"EPHEMERIS_TYPE":0,"CLASSIFICATION_TYPE":"U","NORAD_CAT_ID":25860,"ELEMENT_SET_NO":999,"REV_AT_EPOCH":43992,"BSTAR":4.5240498e-5,"MEAN_MOTION_DOT":2.93e-6,"MEAN_MOTION_DDOT":0},{"OBJECT_NAME":"SL-16 R/B","OBJECT_ID":"1999-039B","EPOCH":"2026-04-16T02:38:44.860416","MEAN_MOTION":14.81781405,"ECCENTRICITY":0.00158586,"INCLINATION":97.9893,"RA_OF_ASC_NODE":165.1361,"ARG_OF_PERICENTER":132.6626,"MEAN_ANOMALY":227.5926,"EPHEMERIS_TYPE":0,"CLASSIFICATION_TYPE":"U","NORAD_CAT_ID":25861,"ELEMENT_SET_NO":999,"REV_AT_EPOCH":44240,"BSTAR":3.760875e-5,"MEAN_MOTION_DOT":2.43e-6,"MEAN_MOTION_DDOT":0},{"OBJECT_NAME":"DELTA 2 R/B","OBJECT_ID":"1999-041E","EPOCH":"2026-04-16T04:08:05.585568","MEAN_MOTION":14.11917817,"ECCENTRICITY":0.05025405,"INCLINATION":51.7596,"RA_OF_ASC_NODE":151.5412,"ARG_OF_PERICENTER":98.9601,"MEAN_ANOMALY":266.8539,"EPHEMERIS_TYPE":0,"CLASSIFICATION_TYPE":"U","NORAD_CAT_ID":25876,"ELEMENT_SET_NO":999,"REV_AT_EPOCH":36832,"BSTAR":8.2076492e-5,"MEAN_MOTION_DOT":2.59e-6,"MEAN_MOTION_DDOT":0}]
